{
  "norad_id": 58960,
  "name": "HBTSS-SV1",
  "history": [
    {
      "epoch": "2026-03-25T20:08:47.513184",
      "apogee_km": 613.7564278054206,
      "perigee_km": 600.4534536438268,
      "latitude_deg": 24.169897218478216,
      "longitude_deg": -131.41387423989363,
      "semi_major_axis_km": 6985.241940724623,
      "eccentricity": 0.00095222,
      "inclination_deg": 39.9931,
      "raan_deg": 228.2494,
      "arg_perigee_deg": 328.9714,
      "mean_anomaly_deg": 31.0511,
      "mean_motion_rev_day": 14.87067159
    }
  ]
}